NORAD_CAT_ID,OBJECT_NAME,OBJECT_TYPE,EPOCH,MEAN_MOTION,ECCENTRICITY,INCLINATION,RA_OF_ASC_NODE,ARG_OF_PERICENTER,MEAN_ANOMALY,BSTAR,MEAN_MOTION_DOT,MEAN_MOTION_DDOT,TLE_LINE0,TLE_LINE1,TLE_LINE2,SEMIMAJOR_AXIS,PERIOD,APOGEE,PERIGEE,DECAYED
54064.0,STARLINK-5172,PAYLOAD,2024-05-21 20:40:42,15.08844253,0.0001352,53.2174,7.9176,95.9647,264.1499,5.1388e-05,5.3e-06,0.0,0 STARLINK-5172,1 54064U 22136P   24142.86160331  .00000530  00000-0  51388-4 0  9991,2 54064  53.2174   7.9176 0001352  95.9647 264.1499 15.08844253 88791,6917.867,95.437,540.668,538.797,0.0
54064.0,STARLINK-5172,PAYLOAD,2024-05-22 20:31:29,15.08837801,0.0001347,53.2175,3.4571,94.47,265.6446,0.00015427,2.168e-05,0.0,0 STARLINK-5172,1 54064U 22136P   24143.85520699  .00002168  00000-0  15427-3 0  9990,2 54064  53.2175   3.4571 0001347  94.4700 265.6446 15.08837801 88946,6917.887,95.438,540.684,538.82,0.0
54064.0,STARLINK-5172,PAYLOAD,2024-05-22 23:42:16,15.08838879,0.0001353,53.2176,2.8624,98.1148,261.9998,0.00018491,2.656e-05,0.0,0 STARLINK-5172,1 54064U 22136P   24143.98768715  .00002656  00000-0  18491-3 0  9993,2 54064  53.2176   2.8624 0001353  98.1148 261.9998 15.08838879 88489,6917.884,95.438,540.685,538.813,0.0
54064.0,STARLINK-5172,PAYLOAD,2024-05-23 20:22:16,15.08844179,0.000131,53.2172,358.9984,100.8386,259.2753,0.00015633,2.201e-05,0.0,0 STARLINK-5172,1 54064U 22136P   24144.84880424  .00002201  00000-0  15633-3 0  9992,2 54064  53.2172 358.9984 0001310 100.8386 259.2753 15.08844179 88611,6917.868,95.437,540.639,538.826,0.0
54064.0,STARLINK-5172,PAYLOAD,2024-05-23 23:33:02,15.08846974,0.0001325,53.2176,358.3997,92.7631,267.3513,0.00018876,2.718e-05,0.0,0 STARLINK-5172,1 54064U 22136P   24144.98128272  .00002718  00000-0  18876-3 0  9998,2 54064  53.2176 358.3997 0001325  92.7631 267.3513 15.08846974 89116,6917.859,95.437,540.641,538.807,0.0
54064.0,STARLINK-5172,PAYLOAD,2024-05-24 13:51:30,15.08846392,0.0001272,53.2174,355.7254,105.0211,255.0922,0.0001462,2.04e-05,0.0,0 STARLINK-5172,1 54064U 22136P   24145.57744124  .00002040  00000-0  14620-3 0  9995,2 54064  53.2174 355.7254 0001272 105.0211 255.0922 15.08846392 88722,6917.861,95.437,540.606,538.846,0.0
54064.0,STARLINK-5172,PAYLOAD,2024-05-24 20:13:02,15.08866837,8.72e-05,53.2167,354.5412,87.9524,272.1568,0.00048122,7.385e-05,0.0,0 STARLINK-5172,1 54064U 22136P   24145.84239285  .00007385  00000-0  48122-3 0  9993,2 54064  53.2167 354.5412 0000872  87.9524 272.1568 15.08866837 89247,6917.798,95.436,540.267,539.06,0.0
54064.0,STARLINK-5172,PAYLOAD,2024-05-24 23:23:49,15.08844152,0.000103,53.2166,353.9448,88.4762,271.6348,0.00011435,1.533e-05,0.0,0 STARLINK-5172,1 54064U 22136P   24145.97488344  .00001533  00000-0  11435-3 0  9995,2 54064  53.2166 353.9448 0001030  88.4762 271.6348 15.08844152 89263,6917.868,95.437,540.445,539.02,0.0
54064.0,STARLINK-5172,PAYLOAD,2024-05-25 13:42:18,15.08841593,0.0001792,53.2163,351.269,85.8901,274.2296,2.0079e-05,3.1e-07,0.0,0 STARLINK-5172,1 54064U 22136P   24146.57104734  .00000031  00000-0  20079-4 0  9997,2 54064  53.2163 351.2690 0001792  85.8901 274.2296 15.08841593 88874,6917.876,95.437,540.98,538.501,0.0
54064.0,STARLINK-5172,PAYLOAD,2024-05-25 20:03:51,15.0883436,0.0001224,53.2184,350.0771,94.7086,265.4046,-3.4017e-05,-8.29e-06,0.0,0 STARLINK-5172,1 54064U 22136P   24146.83601459 -.00000829  00000-0 -34017-4 0  9996,2 54064  53.2184 350.0771 0001224  94.7086 265.4046 15.08834360 89394,6917.898,95.438,540.609,538.916,0.0
54064.0,STARLINK-5172,PAYLOAD,2024-05-26 13:33:05,15.08835458,0.0001005,53.2184,346.8063,80.0267,280.0838,0.00013221,1.817e-05,0.0,0 STARLINK-5172,1 54064U 22136P   24147.56465084  .00001817  00000-0  13221-3 0  9998,2 54064  53.2184 346.8063 0001005  80.0267 280.0838 15.08835458 89028,6917.894,95.438,540.455,539.064,0.0
54064.0,STARLINK-5172,PAYLOAD,2024-05-26 19:54:38,15.0884026,0.0001021,53.2168,345.6184,69.896,290.2142,0.00021479,3.132e-05,0.0,0 STARLINK-5172,1 54064U 22136P   24147.82961186  .00003132  00000-0  21479-3 0  9997,2 54064  53.2168 345.6184 0001021  69.8960 290.2142 15.08840260 89549,6917.88,95.438,540.451,539.038,0.0
54064.0,STARLINK-5172,PAYLOAD,2024-05-27 13:23:52,15.08838495,0.0001105,53.2167,342.3475,81.9046,278.2072,0.00024976,3.689e-05,0.0,0 STARLINK-5172,1 54064U 22136P   24148.55825230  .00003689  00000-0  24976-3 0  9999,2 54064  53.2167 342.3475 0001105  81.9046 278.2072 15.08838495 89172,6917.885,95.438,540.514,538.986,0.0
54064.0,STARLINK-5172,PAYLOAD,2024-05-27 19:45:25,15.08836936,0.0001121,53.2182,341.1542,105.2974,254.8143,0.00015083,2.113e-05,0.0,0 STARLINK-5172,1 54064U 22136P   24148.82321262  .00002113  00000-0  15083-3 0  9995,2 54064  53.2182 341.1542 0001121 105.2974 254.8143 15.08836936 89211,6917.89,95.438,540.53,538.979,0.0
54064.0,STARLINK-5172,PAYLOAD,2024-05-28 05:17:44,15.08839991,0.0001113,53.2182,339.3707,103.352,256.7596,0.00014356,1.998e-05,0.0,0 STARLINK-5172,1 54064U 22136P   24149.22065156  .00001998  00000-0  14356-3 0  9999,2 54064  53.2182 339.3707 0001113 103.3520 256.7596 15.08839991 89756,6917.88,95.438,540.515,538.975,0.0
54064.0,STARLINK-5172,PAYLOAD,2024-05-28 18:00:49,15.08841378,0.000108,53.2176,336.9904,101.1212,258.9902,5.8394e-05,6.42e-06,0.0,0 STARLINK-5172,1 54064U 22136P   24149.75057174  .00000642  00000-0  58394-4 0  9994,2 54064  53.2176 336.9904 0001080 101.1212 258.9902 15.08841378 89351,6917.876,95.437,540.488,538.994,0.0
54064.0,STARLINK-5172,PAYLOAD,2024-05-29 17:51:33,15.08889541,0.000498,53.2182,332.534,356.3744,3.7211,0.00056029,8.653e-05,0.0,0 STARLINK-5172,1 54064U 22136P   24150.74413978  .00008653  00000-0  56029-3 0  9995,2 54064  53.2182 332.5340 0004980 356.3744   3.7211 15.08889541 89982,6917.729,95.434,543.039,536.149,0.0
54064.0,STARLINK-5172,PAYLOAD,2024-05-29 17:51:36,15.08835045,0.0001631,53.2189,332.5416,131.6708,228.4424,3.9541e-05,3.41e-06,0.0,0 STARLINK-5172,1 54064U 22136P   24150.74417710  .00000341  00000-0  39541-4 0  9990,2 54064  53.2189 332.5416 0001631 131.6708 228.4424 15.08835045 89989,6917.896,95.438,540.889,538.632,0.0
54064.0,STARLINK-5172,PAYLOAD,2024-05-30 19:17:46,15.08847947,0.0001048,53.2172,327.7752,109.2767,250.8339,0.0001608,2.273e-05,0.0,0 STARLINK-5172,1 54064U 22136P   24151.80400692  .00002273  00000-0  16080-3 0  9997,2 54064  53.2172 327.7752 0001048 109.2767 250.8339 15.08847947 90146,6917.856,95.437,540.446,538.996,0.0
54064.0,STARLINK-5172,PAYLOAD,2024-05-31 11:11:37,15.08893897,7.86e-05,53.2173,324.8005,98.2178,261.8903,-0.00049426,-8.157e-05,0.0,0 STARLINK-5172,1 54064U 22136P   24152.46640059 -.00008157  00000-0 -49426-3 0  9992,2 54064  53.2173 324.8005 0000786  98.2178 261.8903 15.08893897 90242,6917.716,95.434,540.124,539.037,0.0
54064.0,STARLINK-5172,PAYLOAD,2024-05-31 19:08:33,15.08863285,8.62e-05,53.2179,323.3126,68.8783,291.2301,-0.00046302,-7.654e-05,0.0,0 STARLINK-5172,1 54064U 22136P   24152.79761245 -.00007654  00000-0 -46302-3 0  9990,2 54064  53.2179 323.3126 0000862  68.8783 291.2301 15.08863285 90298,6917.809,95.436,540.271,539.078,0.0
54064.0,STARLINK-5172,PAYLOAD,2024-06-01 04:40:52,15.08838841,9.33e-05,53.2181,321.5283,74.9649,285.1446,8.8119e-06,-1.47e-06,0.0,0 STARLINK-5172,1 54064U 22136P   24153.19505577 -.00000147  00000-0  88119-5 0  9992,2 54064  53.2181 321.5283 0000933  74.9649 285.1446 15.08838841 90352,6917.884,95.438,540.394,539.103,0.0
54064.0,STARLINK-5172,PAYLOAD,2024-06-01 20:34:43,15.08850532,0.0001088,53.2174,318.5539,86.4802,273.6314,0.00018481,2.655e-05,0.0,0 STARLINK-5172,1 54064U 22136P   24153.85744826  .00002655  00000-0  18481-3 0  9995,2 54064  53.2174 318.5539 0001088  86.4802 273.6314 15.08850532 90453,6917.848,95.437,540.466,538.961,0.0
54064.0,STARLINK-5172,PAYLOAD,2024-06-02 10:53:12,15.08842937,0.0001587,53.2187,315.8788,94.7287,265.3887,0.00027241,4.05e-05,0.0,0 STARLINK-5172,1 54064U 22136P   24154.45361224  .00004050  00000-0  27241-3 0  9994,2 54064  53.2187 315.8788 0001587  94.7287 265.3887 15.08842937 90549,6917.871,95.437,540.834,538.639,0.0
54064.0,STARLINK-5172,PAYLOAD,2024-06-03 17:05:31,15.08842721,0.0001847,53.2186,310.2282,92.0877,268.0326,7.3213e-05,8.77e-06,0.0,0 STARLINK-5172,1 54064U 22136P   24155.71217339  .00000877  00000-0  73213-4 0  9995,2 54064  53.2186 310.2282 0001847  92.0877 268.0326 15.08842721 90731,6917.872,95.437,541.015,538.459,0.0
54064.0,STARLINK-5172,PAYLOAD,2024-06-03 20:16:17,15.08845403,0.0001222,53.2165,309.6348,85.9785,274.1346,4.2504e-05,3.89e-06,0.0,0 STARLINK-5172,1 54064U 22136P   24155.84465195  .00000389  00000-0  42504-4 0  9991,2 54064  53.2165 309.6348 0001222  85.9785 274.1346 15.08845403 90278,6917.864,95.437,540.574,538.884,0.0
54064.0,STARLINK-5172,PAYLOAD,2024-06-04 10:34:46,15.08839906,0.0001249,53.2149,306.9583,90.7147,269.3988,0.00015357,2.157e-05,0.0,0 STARLINK-5172,1 54064U 22136P   24156.44081482  .00002157  00000-0  15357-3 0  9991,2 54064  53.2149 306.9583 0001249  90.7147 269.3988 15.08839906 90365,6917.881,95.438,540.61,538.882,0.0
54064.0,STARLINK-5172,PAYLOAD,2024-06-04 16:56:18,15.08839764,0.0001277,53.2156,305.7687,90.5933,269.5206,0.0001318,1.81e-05,0.0,0 STARLINK-5172,1 54064U 22136P   24156.70577524  .00001810  00000-0  13180-3 0  9994,2 54064  53.2156 305.7687 0001277  90.5933 269.5206 15.08839764 90881,6917.881,95.438,540.63,538.863,0.0
54064.0,STARLINK-5172,PAYLOAD,2024-06-05 02:28:37,15.08853573,0.0001396,53.2238,303.9849,86.6334,273.4818,-2.7531e-05,-7.26e-06,0.0,0 STARLINK-5172,1 54064U 22136P   24157.10321077 -.00000726  00000-0 -27531-4 0  9992,2 54064  53.2238 303.9849 0001396  86.6334 273.4818 15.08853573 90949,6917.839,95.437,540.67,538.738,0.0
54064.0,STARLINK-5172,PAYLOAD,2024-06-05 10:25:32,15.08858644,0.0001203,53.2262,302.4996,87.7318,272.3812,-0.00048875,-8.062e-05,0.0,0 STARLINK-5172,1 54064U 22136P   24157.43440683 -.00008062  00000-0 -48875-3 0  9997,2 54064  53.2262 302.4996 0001203  87.7318 272.3812 15.08858644 90513,6917.823,95.436,540.521,538.856,0.0
